ONEWEB-0588             
1 55153U 23004P   26197.32068428  .00000040  00000+0  67607-4 0  9999
2 55153  87.9186 329.6742 0002141  85.4668 274.6709 13.18686852173530
ONEWEB-0598             
1 55154U 23004Q   26197.00043961 -.00000160  00000+0 -48609-3 0  9995
2 55154  87.8887  15.3305 0002506  98.7240 261.4172 13.11419007169677
ONEWEB-0599             
1 55155U 23004R   26196.88064227  .00000040  00000+0  68891-4 0  9990
2 55155  87.9144   0.1553 0001883  99.7554 260.3790 13.17650334171266
ONEWEB-0614             
1 55156U 23004S   26196.99534838 -.00000351  00000+0 -10248-2 0  9991
2 55156  87.8882  15.3396 0001770  84.0398 276.0931 13.11418228169611
ONEWEB-0616             
1 55157U 23004T   26196.99876445 -.00000036  00000+0 -12503-3 0  9992
2 55157  87.9148   0.1358 0001803 122.4260 237.7046 13.17651149171497
ONEWEB-0617             
1 55158U 23004U   26196.98347079 -.00000552  00000+0 -15944-2 0  9992
2 55158  87.8887  15.3350 0001908  77.9771 282.1570 13.11417286169639
ONEWEB-0618             
1 55159U 23004V   26196.95644595  .00003349  00000+0  18562-3 0  9998
2 55159  86.9108 165.9533 0012284 171.9805 188.1634 15.13379702186610
ONEWEB-0619             
1 55160U 23004W   26197.18269952 -.00000107  00000+0 -30928-3 0  9997
2 55160  87.9156   0.0826 0001463  90.1739 269.9560 13.17650488171418
ONEWEB-0620             
1 55161U 23004X   26197.05468597 -.00000381  00000+0 -11108-2 0  9992
2 55161  87.8881  15.3274 0002113  90.8640 269.2730 13.11416154169615
ONEWEB-0621             
1 55162U 23004Y   26197.23442033 -.00000084  00000+0 -27217-3 0  9999
2 55162  87.8891  15.2833 0001734  83.8985 276.2340 13.11417917169612
ONEWEB-0622             
1 55163U 23004Z   26197.23951054  .00000163  00000+0  42490-3 0  9994
2 55163  87.8892  15.2854 0002190  72.2340 287.9027 13.11418070169602
ONEWEB-0623             
1 55164U 23004AA  26196.87389897 -.00000019  00000+0 -82835-4 0  9994
2 55164  87.9141   0.1709 0001635  68.3213 291.8092 13.17648192171369
ONEWEB-0624             
1 55165U 23004AB  26197.15430642  .00000074  00000+0  16942-3 0  9996
2 55165  87.8967 344.8208 0001778  91.8433 268.2899 13.12929153171873
ONEWEB-0625             
1 55166U 23004AC  26197.16751278 -.00000206  00000+0 -56424-3 0  9997
2 55166  87.9145   0.1086 0001753  96.8679 263.2653 13.17649087171399
ONEWEB-0626             
1 55167U 23004AD  26197.00553198 -.00000041  00000+0 -13960-3 0  9997
2 55167  87.9146   0.1402 0002194  98.0516 262.0864 13.17651014171379
ONEWEB-0627             
1 55168U 23004AE  26196.99371434  .00000007  00000+0 -15287-4 0  9992
2 55168  87.9146   0.1432 0001663  79.3532 280.7786 13.17648613171374
