{"fetched_at":"2026-07-16T17:46:05.603Z","source":"https://celestrak.org/NORAD/elements/gp.php?GROUP=oneweb&FORMAT=JSON","constellation":"oneweb","records":[{"OBJECT_NAME":"ONEWEB-0588","OBJECT_ID":"2023-004P","EPOCH":"2026-07-16T07:41:47.121792","CLASSIFICATION_TYPE":"U","MEAN_MOTION":13.18686852,"ECCENTRICITY":0.00021417,"INCLINATION":87.9186,"RA_OF_ASC_NODE":329.6742,"ARG_OF_PERICENTER":85.4668,"MEAN_ANOMALY":274.6709,"EPHEMERIS_TYPE":0,"NORAD_CAT_ID":55153,"ELEMENT_SET_NO":999,"REV_AT_EPOCH":17353,"BSTAR":0.00006760697,"MEAN_MOTION_DOT":4e-7,"MEAN_MOTION_DDOT":0},{"OBJECT_NAME":"ONEWEB-0598","OBJECT_ID":"2023-004Q","EPOCH":"2026-07-16T00:00:37.982304","CLASSIFICATION_TYPE":"U","MEAN_MOTION":13.11419007,"ECCENTRICITY":0.00025061,"INCLINATION":87.8887,"RA_OF_ASC_NODE":15.3305,"ARG_OF_PERICENTER":98.724,"MEAN_ANOMALY":261.4172,"EPHEMERIS_TYPE":0,"NORAD_CAT_ID":55154,"ELEMENT_SET_NO":999,"REV_AT_EPOCH":16967,"BSTAR":-0.0004860867,"MEAN_MOTION_DOT":-0.0000016,"MEAN_MOTION_DDOT":0},{"OBJECT_NAME":"ONEWEB-0599","OBJECT_ID":"2023-004R","EPOCH":"2026-07-15T21:08:07.492128","CLASSIFICATION_TYPE":"U","MEAN_MOTION":13.17650334,"ECCENTRICITY":0.0001883,"INCLINATION":87.9144,"RA_OF_ASC_NODE":0.1553,"ARG_OF_PERICENTER":99.7554,"MEAN_ANOMALY":260.379,"EPHEMERIS_TYPE":0,"NORAD_CAT_ID":55155,"ELEMENT_SET_NO":999,"REV_AT_EPOCH":17126,"BSTAR":0.000068891,"MEAN_MOTION_DOT":4e-7,"MEAN_MOTION_DDOT":0},{"OBJECT_NAME":"ONEWEB-0614","OBJECT_ID":"2023-004S","EPOCH":"2026-07-15T23:53:18.100032","CLASSIFICATION_TYPE":"U","MEAN_MOTION":13.11418228,"ECCENTRICITY":0.00017706,"INCLINATION":87.8882,"RA_OF_ASC_NODE":15.3396,"ARG_OF_PERICENTER":84.0398,"MEAN_ANOMALY":276.0931,"EPHEMERIS_TYPE":0,"NORAD_CAT_ID":55156,"ELEMENT_SET_NO":999,"REV_AT_EPOCH":16961,"BSTAR":-0.0010247752,"MEAN_MOTION_DOT":-0.00000351,"MEAN_MOTION_DDOT":0},{"OBJECT_NAME":"ONEWEB-0616","OBJECT_ID":"2023-004T","EPOCH":"2026-07-15T23:58:13.248480","CLASSIFICATION_TYPE":"U","MEAN_MOTION":13.17651149,"ECCENTRICITY":0.00018039,"INCLINATION":87.9148,"RA_OF_ASC_NODE":0.1358,"ARG_OF_PERICENTER":122.426,"MEAN_ANOMALY":237.7046,"EPHEMERIS_TYPE":0,"NORAD_CAT_ID":55157,"ELEMENT_SET_NO":999,"REV_AT_EPOCH":17149,"BSTAR":-0.00012503339,"MEAN_MOTION_DOT":-3.6e-7,"MEAN_MOTION_DDOT":0},{"OBJECT_NAME":"ONEWEB-0617","OBJECT_ID":"2023-004U","EPOCH":"2026-07-15T23:36:11.876256","CLASSIFICATION_TYPE":"U","MEAN_MOTION":13.11417286,"ECCENTRICITY":0.00019083,"INCLINATION":87.8887,"RA_OF_ASC_NODE":15.335,"ARG_OF_PERICENTER":77.9771,"MEAN_ANOMALY":282.157,"EPHEMERIS_TYPE":0,"NORAD_CAT_ID":55158,"ELEMENT_SET_NO":999,"REV_AT_EPOCH":16963,"BSTAR":-0.0015944207,"MEAN_MOTION_DOT":-0.00000552,"MEAN_MOTION_DDOT":0},{"OBJECT_NAME":"ONEWEB-0618","OBJECT_ID":"2023-004V","EPOCH":"2026-07-15T22:57:16.930080","CLASSIFICATION_TYPE":"U","MEAN_MOTION":15.13379702,"ECCENTRICITY":0.0012284,"INCLINATION":86.9108,"RA_OF_ASC_NODE":165.9533,"ARG_OF_PERICENTER":171.9805,"MEAN_ANOMALY":188.1634,"EPHEMERIS_TYPE":0,"NORAD_CAT_ID":55159,"ELEMENT_SET_NO":999,"REV_AT_EPOCH":18661,"BSTAR":0.00018562,"MEAN_MOTION_DOT":0.00003349,"MEAN_MOTION_DDOT":0},{"OBJECT_NAME":"ONEWEB-0619","OBJECT_ID":"2023-004W","EPOCH":"2026-07-16T04:23:05.238528","CLASSIFICATION_TYPE":"U","MEAN_MOTION":13.17650488,"ECCENTRICITY":0.00014637,"INCLINATION":87.9156,"RA_OF_ASC_NODE":0.0826,"ARG_OF_PERICENTER":90.1739,"MEAN_ANOMALY":269.956,"EPHEMERIS_TYPE":0,"NORAD_CAT_ID":55160,"ELEMENT_SET_NO":999,"REV_AT_EPOCH":17141,"BSTAR":-0.00030927662,"MEAN_MOTION_DOT":-0.00000107,"MEAN_MOTION_DDOT":0},{"OBJECT_NAME":"ONEWEB-0620","OBJECT_ID":"2023-004X","EPOCH":"2026-07-16T01:18:44.867808","CLASSIFICATION_TYPE":"U","MEAN_MOTION":13.11416154,"ECCENTRICITY":0.00021132,"INCLINATION":87.8881,"RA_OF_ASC_NODE":15.3274,"ARG_OF_PERICENTER":90.864,"MEAN_ANOMALY":269.273,"EPHEMERIS_TYPE":0,"NORAD_CAT_ID":55161,"ELEMENT_SET_NO":999,"REV_AT_EPOCH":16961,"BSTAR":-0.0011107962,"MEAN_MOTION_DOT":-0.00000381,"MEAN_MOTION_DDOT":0},{"OBJECT_NAME":"ONEWEB-0621","OBJECT_ID":"2023-004Y","EPOCH":"2026-07-16T05:37:33.916512","CLASSIFICATION_TYPE":"U","MEAN_MOTION":13.11417917,"ECCENTRICITY":0.00017341,"INCLINATION":87.8891,"RA_OF_ASC_NODE":15.2833,"ARG_OF_PERICENTER":83.8985,"MEAN_ANOMALY":276.234,"EPHEMERIS_TYPE":0,"NORAD_CAT_ID":55162,"ELEMENT_SET_NO":999,"REV_AT_EPOCH":16961,"BSTAR":-0.00027216904,"MEAN_MOTION_DOT":-8.4e-7,"MEAN_MOTION_DDOT":0},{"OBJECT_NAME":"ONEWEB-0622","OBJECT_ID":"2023-004Z","EPOCH":"2026-07-16T05:44:53.710656","CLASSIFICATION_TYPE":"U","MEAN_MOTION":13.1141807,"ECCENTRICITY":0.00021904,"INCLINATION":87.8892,"RA_OF_ASC_NODE":15.2854,"ARG_OF_PERICENTER":72.234,"MEAN_ANOMALY":287.9027,"EPHEMERIS_TYPE":0,"NORAD_CAT_ID":55163,"ELEMENT_SET_NO":999,"REV_AT_EPOCH":16960,"BSTAR":0.00042490398,"MEAN_MOTION_DOT":0.00000163,"MEAN_MOTION_DDOT":0},{"OBJECT_NAME":"ONEWEB-0623","OBJECT_ID":"2023-004AA","EPOCH":"2026-07-15T20:58:24.871008","CLASSIFICATION_TYPE":"U","MEAN_MOTION":13.17648192,"ECCENTRICITY":0.0001635,"INCLINATION":87.9141,"RA_OF_ASC_NODE":0.1709,"ARG_OF_PERICENTER":68.3213,"MEAN_ANOMALY":291.8092,"EPHEMERIS_TYPE":0,"NORAD_CAT_ID":55164,"ELEMENT_SET_NO":999,"REV_AT_EPOCH":17136,"BSTAR":-0.000082835,"MEAN_MOTION_DOT":-1.9e-7,"MEAN_MOTION_DDOT":0},{"OBJECT_NAME":"ONEWEB-0624","OBJECT_ID":"2023-004AB","EPOCH":"2026-07-16T03:42:12.074688","CLASSIFICATION_TYPE":"U","MEAN_MOTION":13.12929153,"ECCENTRICITY":0.00017785,"INCLINATION":87.8967,"RA_OF_ASC_NODE":344.8208,"ARG_OF_PERICENTER":91.8433,"MEAN_ANOMALY":268.2899,"EPHEMERIS_TYPE":0,"NORAD_CAT_ID":55165,"ELEMENT_SET_NO":999,"REV_AT_EPOCH":17187,"BSTAR":0.0001694188,"MEAN_MOTION_DOT":7.4e-7,"MEAN_MOTION_DDOT":0},{"OBJECT_NAME":"ONEWEB-0625","OBJECT_ID":"2023-004AC","EPOCH":"2026-07-16T04:01:13.104192","CLASSIFICATION_TYPE":"U","MEAN_MOTION":13.17649087,"ECCENTRICITY":0.00017535,"INCLINATION":87.9145,"RA_OF_ASC_NODE":0.1086,"ARG_OF_PERICENTER":96.8679,"MEAN_ANOMALY":263.2653,"EPHEMERIS_TYPE":0,"NORAD_CAT_ID":55166,"ELEMENT_SET_NO":999,"REV_AT_EPOCH":17139,"BSTAR":-0.00056423823,"MEAN_MOTION_DOT":-0.00000206,"MEAN_MOTION_DDOT":0},{"OBJECT_NAME":"ONEWEB-0626","OBJECT_ID":"2023-004AD","EPOCH":"2026-07-16T00:07:57.963072","CLASSIFICATION_TYPE":"U","MEAN_MOTION":13.17651014,"ECCENTRICITY":0.00021949,"INCLINATION":87.9146,"RA_OF_ASC_NODE":0.1402,"ARG_OF_PERICENTER":98.0516,"MEAN_ANOMALY":262.0864,"EPHEMERIS_TYPE":0,"NORAD_CAT_ID":55167,"ELEMENT_SET_NO":999,"REV_AT_EPOCH":17137,"BSTAR":-0.00013959621,"MEAN_MOTION_DOT":-4.1e-7,"MEAN_MOTION_DDOT":0},{"OBJECT_NAME":"ONEWEB-0627","OBJECT_ID":"2023-004AE","EPOCH":"2026-07-15T23:50:56.918976","CLASSIFICATION_TYPE":"U","MEAN_MOTION":13.17648613,"ECCENTRICITY":0.00016639,"INCLINATION":87.9146,"RA_OF_ASC_NODE":0.1432,"ARG_OF_PERICENTER":79.3532,"MEAN_ANOMALY":280.7786,"EPHEMERIS_TYPE":0,"NORAD_CAT_ID":55168,"ELEMENT_SET_NO":999,"REV_AT_EPOCH":17137,"BSTAR":-0.000015286643,"MEAN_MOTION_DOT":7e-8,"MEAN_MOTION_DDOT":0}]}
